{
  "last_updated": "2026-01-02T06:00:02.344216",
  "satellites": {
    "98592": {
      "name": "DUTHSat-2",
      "norad_id": "98592",
      "tle": "1 64530U 25135C   26001.88843356  .00017554  00000-0  76773-3 0  9993\n2 64530  97.4493 118.6231 0005834  55.9491 304.2299 15.22116784 29592",
      "epoch": "2026-01-01T21:19:20.659584",
      "fetched_at": "2026-01-02T06:00:02.471362",
      "source": "satnogs"
    },
    "98530": {
      "name": "LAMARR",
      "norad_id": "98530",
      "tle": "1 66683U 25276T   26001.92703731  .00018849  00000-0  95125-3 0  9997\n2 66683  97.4447  78.3318 0005357 199.4361 160.6669 15.17148245  5185",
      "epoch": "2026-01-01T22:14:56.023584",
      "fetched_at": "2026-01-02T06:00:02.522180",
      "source": "satnogs"
    },
    "98529": {
      "name": "DIRAC",
      "norad_id": "98529",
      "tle": "1 66681U 25276R   26001.98606506  .00028913  00000-0  14240-2 0  9994\n2 66681  97.4331  78.3567 0004995 233.6753 126.4020 15.17913325  5195",
      "epoch": "2026-01-01T23:39:56.021184",
      "fetched_at": "2026-01-02T06:00:02.574099",
      "source": "satnogs"
    },
    "98518": {
      "name": "MICE-1",
      "norad_id": "98518",
      "tle": "1 66684U 25276U   26001.65772387  .00007243  00000-0  36405-3 0  9993\n2 66684  97.4473  78.0906 0005075 199.7850 160.3188 15.17543862  5141",
      "epoch": "2026-01-01T15:47:07.342368",
      "fetched_at": "2026-01-02T06:00:02.618423",
      "source": "satnogs"
    }
  },
  "fetch_log": [
    {
      "norad_id": "98592",
      "name": "DUTHSat-2",
      "status": "success",
      "source": "satnogs",
      "timestamp": "2026-01-02T06:00:02.471366"
    },
    {
      "norad_id": "98530",
      "name": "LAMARR",
      "status": "success",
      "source": "satnogs",
      "timestamp": "2026-01-02T06:00:02.522192"
    },
    {
      "norad_id": "98529",
      "name": "DIRAC",
      "status": "success",
      "source": "satnogs",
      "timestamp": "2026-01-02T06:00:02.574102"
    },
    {
      "norad_id": "98518",
      "name": "MICE-1",
      "status": "success",
      "source": "satnogs",
      "timestamp": "2026-01-02T06:00:02.618426"
    }
  ]
}